GLOBALSTAR M057 [-]     
1 25943U 99058A   24057.60606575 -.00000063  00000+0  27001-3 0  9999
2 25943  51.9961 260.6848 0003458  99.9154 260.2086 12.24780589108534
GLOBALSTAR M059 [-]     
1 25944U 99058B   24057.48733192 -.00000016  00000+0  86863-3 0  9991
2 25944  52.0023  56.7731 0000575 116.9869  53.1987 11.99964697516819
GLOBALSTAR M056 [-]     
1 25945U 99058C   24057.21235156 -.00000133  00000+0 -53399-3 0  9999
2 25945  51.9967  71.7290 0000796 308.7446 130.3755 12.04772712105131
GLOBALSTAR M031 [-]     
1 25946U 99058D   24057.27932184 -.00000159  00000+0 -69770-3 0  9999
2 25946  51.9994 352.4110 0001189 308.1534 219.2882 12.16003013106527
GLOBALSTAR M039 [-]     
1 25961U 99062A   24057.01729714 -.00000069  00000+0  19385-3 0  9992
2 25961  51.9837 282.0321 0003229  25.1586 334.9437 12.62283066119953
GLOBALSTAR M034 [-]     
1 25962U 99062B   24057.49656021 -.00000160  00000+0 -12647-2 0  9991
2 25962  51.9862 170.4812 0013994 217.6112 222.4243 11.79422965 82146
GLOBALSTAR M029 [-]     
1 25963U 99062C   24057.12994101 -.00000047  00000+0  48917-3 0  9999
2 25963  51.9816 306.1904 0001843 266.4352 260.8579 11.99874176111850
GLOBALSTAR M061 [-]     
1 25964U 99062D   24057.20017892 -.00000086  00000+0 -92798-4 0  9993
2 25964  51.9829 348.9675 0006034 144.0345   4.6769 11.76758597 65029
